start=new Date('2022-04-01T00:00:00.000Z').valueOf();
sats=[{"DECAY_DATE":null,"TLE_LINE1":"1 47650U 21012AG  22090.22722931  .00009488  00000-0  65488-3 0  9992","PERIOD":"95.592","LAUNCH_DATE":"2021-02-16","MEAN_ELEMENT_THEORY":"SGP4","CENTER_NAME":"EARTH","APOAPSIS":"548.345","CLASSIFICATION_TYPE":"U","OBJECT_TYPE":"PAYLOAD","OBJECT_NAME":"STARLINK-2033","GP_ID":"200109550","TIME_SYSTEM":"UTC","MEAN_MOTION_DOT":"0.00009488","REF_FRAME":"TEME","TLE_LINE2":"2 47650  53.0550  33.6209 0001657  57.1231 302.9917 15.06405201 62781","MEAN_MOTION":"15.06405201","REV_AT_EPOCH":"6278","EPOCH":"2022-03-31T05:27:12.612384","RCS_SIZE":"LARGE","MEAN_MOTION_DDOT":"0.0000000000000","SITE":"AFETR","MEAN_ANOMALY":"302.9917","ELEMENT_SET_NO":"999","OBJECT_ID":"2021-012AG","RA_OF_ASC_NODE":"33.6209","FILE":"3381165","ARG_OF_PERICENTER":"57.1231","NORAD_CAT_ID":"47650","INCLINATION":"53.0550","COUNTRY_CODE":"US","SEMIMAJOR_AXIS":"6925.333","ECCENTRICITY":"0.00016570","BSTAR":"0.00065488000000","EPHEMERIS_TYPE":"0","PERIAPSIS":"546.050"},{"MEAN_MOTION":"15.06396766","TLE_LINE2":"2 47651  53.0555  53.4697 0001556  51.5384 308.5744 15.06396766 63037","REF_FRAME":"TEME","MEAN_MOTION_DOT":"0.00000143","TIME_SYSTEM":"UTC","OBJECT_NAME":"STARLINK-2035","GP_ID":"200145888","APOAPSIS":"548.301","OBJECT_TYPE":"PAYLOAD","CLASSIFICATION_TYPE":"U","CENTER_NAME":"EARTH","PERIOD":"95.592","MEAN_ELEMENT_THEORY":"SGP4","LAUNCH_DATE":"2021-02-16","DECAY_DATE":null,"TLE_LINE1":"1 47651U 21012AH  22090.26131085  .00000143  00000-0  28499-4 0  9992","ECCENTRICITY":"0.00015560","PERIAPSIS":"546.146","EPHEMERIS_TYPE":"0","BSTAR":"0.00002849900000","COUNTRY_CODE":"US","SEMIMAJOR_AXIS":"6925.358","INCLINATION":"53.0555","ARG_OF_PERICENTER":"51.5384","NORAD_CAT_ID":"47651","OBJECT_ID":"2021-012AH","ELEMENT_SET_NO":"999","FILE":"3381849","RA_OF_ASC_NODE":"53.4697","MEAN_ANOMALY":"308.5744","SITE":"AFETR","MEAN_MOTION_DDOT":"0.0000000000000","RCS_SIZE":"LARGE","EPOCH":"2022-03-31T06:16:17.257440","REV_AT_EPOCH":"6303"},{"MEAN_ANOMALY":"307.9581","SITE":"AFETR","REV_AT_EPOCH":"6256","RCS_SIZE":"LARGE","MEAN_MOTION_DDOT":"0.0000000000000","EPOCH":"2022-03-31T14:52:30.306144","COUNTRY_CODE":"US","SEMIMAJOR_AXIS":"6925.365","INCLINATION":"53.0560","EPHEMERIS_TYPE":"0","PERIAPSIS":"545.926","BSTAR":"0.00011547000000","ECCENTRICITY":"0.00018830","RA_OF_ASC_NODE":"51.8629","FILE":"3381950","OBJECT_ID":"2021-012AJ","ELEMENT_SET_NO":"999","NORAD_CAT_ID":"47652","ARG_OF_PERICENTER":"52.1578","MEAN_ELEMENT_THEORY":"SGP4","LAUNCH_DATE":"2021-02-16","PERIOD":"95.592","CENTER_NAME":"EARTH","TLE_LINE1":"1 47652U 21012AJ  22090.61979521  .00001438  00000-0  11547-3 0  9990","DECAY_DATE":null,"TLE_LINE2":"2 47652  53.0560  51.8629 0001883  52.1578 307.9581 15.06394539 62561","MEAN_MOTION_DOT":"0.00001438","REF_FRAME":"TEME","TIME_SYSTEM":"UTC","MEAN_MOTION":"15.06394539","OBJECT_TYPE":"PAYLOAD","CLASSIFICATION_TYPE":"U","APOAPSIS":"548.534","GP_ID":"200151213","OBJECT_NAME":"STARLINK-2036"},{"MEAN_MOTION":"15.06400330","TLE_LINE2":"2 47653  53.0557  32.1678 0001699  46.8549 313.2581 15.06400330 63341","MEAN_MOTION_DOT":"-0.00000227","REF_FRAME":"TEME","TIME_SYSTEM":"UTC","GP_ID":"200146382","OBJECT_NAME":"STARLINK-2037","OBJECT_TYPE":"PAYLOAD","CLASSIFICATION_TYPE":"U","APOAPSIS":"548.389","CENTER_NAME":"EARTH","MEAN_ELEMENT_THEORY":"SGP4","LAUNCH_DATE":"2021-02-16","PERIOD":"95.592","TLE_LINE1":"1 47653U 21012AK  22090.54791508 -.00000227  00000-0  36642-5 0  9991","DECAY_DATE":null,"PERIAPSIS":"546.036","EPHEMERIS_TYPE":"0","BSTAR":"0.00000366420000","ECCENTRICITY":"0.00016990","COUNTRY_CODE":"US","SEMIMAJOR_AXIS":"6925.348","INCLINATION":"53.0557","NORAD_CAT_ID":"47653","ARG_OF_PERICENTER":"46.8549","RA_OF_ASC_NODE":"32.1678","FILE":"3381849","OBJECT_ID":"2021-012AK","ELEMENT_SET_NO":"999","MEAN_ANOMALY":"313.2581","SITE":"AFETR","MEAN_MOTION_DDOT":"0.0000000000000","RCS_SIZE":"LARGE","EPOCH":"2022-03-31T13:08:59.862912","REV_AT_EPOCH":"6334"},{"MEAN_MOTION":"15.06404474","MEAN_MOTION_DOT":"0.00001369","TIME_SYSTEM":"UTC","REF_FRAME":"TEME","TLE_LINE2":"2 47654  53.0559  53.0237 0001865  55.6537 304.4628 15.06404474 63041","GP_ID":"200145638","OBJECT_NAME":"STARLINK-2038","CLASSIFICATION_TYPE":"U","OBJECT_TYPE":"PAYLOAD","APOAPSIS":"548.491","CENTER_NAME":"EARTH","LAUNCH_DATE":"2021-02-16","MEAN_ELEMENT_THEORY":"SGP4","PERIOD":"95.592","TLE_LINE1":"1 47654U 21012AL  22090.35808669  .00001369  00000-0  11077-3 0  9998","DECAY_DATE":null,"BSTAR":"0.00011077000000","PERIAPSIS":"545.908","EPHEMERIS_TYPE":"0","ECCENTRICITY":"0.00018650","INCLINATION":"53.0559","COUNTRY_CODE":"US","SEMIMAJOR_AXIS":"6925.335","NORAD_CAT_ID":"47654","ARG_OF_PERICENTER":"55.6537","FILE":"3381849","RA_OF_ASC_NODE":"53.0237","ELEMENT_SET_NO":"999","OBJECT_ID":"2021-012AL","SITE":"AFETR","MEAN_ANOMALY":"304.4628","MEAN_MOTION_DDOT":"0.0000000000000","RCS_SIZE":"LARGE","EPOCH":"2022-03-31T08:35:38.690016","REV_AT_EPOCH":"6304"},{"NORAD_CAT_ID":"47655","ARG_OF_PERICENTER":"57.8666","FILE":"3381951","RA_OF_ASC_NODE":"51.8719","OBJECT_ID":"2021-012AM","ELEMENT_SET_NO":"999","PERIAPSIS":"546.051","EPHEMERIS_TYPE":"0","BSTAR":"0.00024817000000","ECCENTRICITY":"0.00016400","SEMIMAJOR_AXIS":"6925.321","COUNTRY_CODE":"US","INCLINATION":"53.0553","EPOCH":"2022-03-31T14:47:11.433120","RCS_SIZE":"LARGE","MEAN_MOTION_DDOT":"0.0000000000000","REV_AT_EPOCH":"6256","MEAN_ANOMALY":"302.2482","SITE":"AFETR","GP_ID":"200151730","OBJECT_NAME":"STARLINK-2039","OBJECT_TYPE":"PAYLOAD","CLASSIFICATION_TYPE":"U","APOAPSIS":"548.322","MEAN_MOTION":"15.06408887","TLE_LINE2":"2 47655  53.0553  51.8719 0001640  57.8666 302.2482 15.06408887 62567","MEAN_MOTION_DOT":"0.00003418","REF_FRAME":"TEME","TIME_SYSTEM":"UTC","TLE_LINE1":"1 47655U 21012AM  22090.61610455  .00003418  00000-0  24817-3 0  9995","DECAY_DATE":null,"CENTER_NAME":"EARTH","MEAN_ELEMENT_THEORY":"SGP4","LAUNCH_DATE":"2021-02-16","PERIOD":"95.592"},{"CENTER_NAME":"EARTH","LAUNCH_DATE":"2021-02-16","MEAN_ELEMENT_THEORY":"SGP4","PERIOD":"95.588","TLE_LINE1":"1 47656U 21012AN  22090.56631797  .00025425  00000-0  17167-2 0  9993","DECAY_DATE":null,"MEAN_MOTION":"15.06462184","MEAN_MOTION_DOT":"0.00025425","TIME_SYSTEM":"UTC","REF_FRAME":"TEME","TLE_LINE2":"2 47656  53.0561  32.0948 0002033  47.5364 312.5797 15.06462184 62833","GP_ID":"200151737","OBJECT_NAME":"STARLINK-2040","CLASSIFICATION_TYPE":"U","OBJECT_TYPE":"PAYLOAD","APOAPSIS":"548.431","SITE":"AFETR","MEAN_ANOMALY":"312.5797","EPOCH":"2022-03-31T13:35:29.872608","RCS_SIZE":"LARGE","MEAN_MOTION_DDOT":"0.0000000000000","REV_AT_EPOCH":"6283","BSTAR":"0.00171670000000","PERIAPSIS":"545.615","EPHEMERIS_TYPE":"0","ECCENTRICITY":"0.00020330","INCLINATION":"53.0561","COUNTRY_CODE":"US","SEMIMAJOR_AXIS":"6925.158","NORAD_CAT_ID":"47656","ARG_OF_PERICENTER":"47.5364","FILE":"3381952","RA_OF_ASC_NODE":"32.0948","ELEMENT_SET_NO":"999","OBJECT_ID":"2021-012AN"},{"PERIOD":"95.592","MEAN_ELEMENT_THEORY":"SGP4","LAUNCH_DATE":"2021-02-16","CENTER_NAME":"EARTH","DECAY_DATE":null,"TLE_LINE1":"1 47657U 21012AP  22090.37283217  .00005361  00000-0  37847-3 0  9998","TLE_LINE2":"2 47657  53.0549  52.9698 0001572  66.5692 293.5462 15.06407136 63042","REF_FRAME":"TEME","MEAN_MOTION_DOT":"0.00005361","TIME_SYSTEM":"UTC","MEAN_MOTION":"15.06407136","APOAPSIS":"548.280","OBJECT_TYPE":"PAYLOAD","CLASSIFICATION_TYPE":"U","OBJECT_NAME":"STARLINK-2041","GP_ID":"200146876","MEAN_ANOMALY":"293.5462","SITE":"AFETR","REV_AT_EPOCH":"6304","MEAN_MOTION_DDOT":"0.0000000000000","RCS_SIZE":"LARGE","EPOCH":"2022-03-31T08:56:52.699488","COUNTRY_CODE":"US","SEMIMAJOR_AXIS":"6925.327","INCLINATION":"53.0549","ECCENTRICITY":"0.00015720","EPHEMERIS_TYPE":"0","PERIAPSIS":"546.103","BSTAR":"0.00037847000000","OBJECT_ID":"2021-012AP","ELEMENT_SET_NO":"999","FILE":"3381849","RA_OF_ASC_NODE":"52.9698","ARG_OF_PERICENTER":"66.5692","NORAD_CAT_ID":"47657"},{"APOAPSIS":"548.283","OBJECT_TYPE":"PAYLOAD","CLASSIFICATION_TYPE":"U","OBJECT_NAME":"STARLINK-2042","GP_ID":"200145145","TLE_LINE2":"2 47658  53.0559  53.2959 0001554  57.7622 302.3517 15.06402116 63057","MEAN_MOTION_DOT":"0.00000865","TIME_SYSTEM":"UTC","REF_FRAME":"TEME","MEAN_MOTION":"15.06402116","DECAY_DATE":null,"TLE_LINE1":"1 47658U 21012AQ  22090.29910651  .00000865  00000-0  76971-4 0  9995","PERIOD":"95.592","MEAN_ELEMENT_THEORY":"SGP4","LAUNCH_DATE":"2021-02-16","CENTER_NAME":"EARTH","OBJECT_ID":"2021-012AQ","ELEMENT_SET_NO":"999","RA_OF_ASC_NODE":"53.2959","FILE":"3381849","ARG_OF_PERICENTER":"57.7622","NORAD_CAT_ID":"47658","COUNTRY_CODE":"US","SEMIMAJOR_AXIS":"6925.342","INCLINATION":"53.0559","ECCENTRICITY":"0.00015540","EPHEMERIS_TYPE":"0","PERIAPSIS":"546.131","BSTAR":"0.00007697100000","REV_AT_EPOCH":"6305","RCS_SIZE":"LARGE","MEAN_MOTION_DDOT":"0.0000000000000","EPOCH":"2022-03-31T07:10:42.802464","MEAN_ANOMALY":"302.3517","SITE":"AFETR"},{"CENTER_NAME":"EARTH","LAUNCH_DATE":"2021-02-16","MEAN_ELEMENT_THEORY":"SGP4","PERIOD":"95.592","TLE_LINE1":"1 47659U 21012AR  22090.91667824  .00028229  00000-0  19067-2 0  9991","DECAY_DATE":null,"MEAN_MOTION":"15.06394779","MEAN_MOTION_DOT":"0.00028229","REF_FRAME":"TEME","TIME_SYSTEM":"UTC","TLE_LINE2":"2 47659  53.0550 290.5211 0001436  74.6043 256.4245 15.06394779 64288","GP_ID":"200151285","OBJECT_NAME":"STARLINK-2043","CLASSIFICATION_TYPE":"U","OBJECT_TYPE":"PAYLOAD","APOAPSIS":"548.224","SITE":"AFETR","MEAN_ANOMALY":"256.4245","RCS_SIZE":"LARGE","EPOCH":"2022-03-31T22:00:00.999936","MEAN_MOTION_DDOT":"0.0000000000000","REV_AT_EPOCH":"6428","BSTAR":"0.00190670000000","PERIAPSIS":"546.235","EPHEMERIS_TYPE":"0","ECCENTRICITY":"0.00014360","INCLINATION":"53.0550","SEMIMAJOR_AXIS":"6925.365","COUNTRY_CODE":"US","NORAD_CAT_ID":"47659","ARG_OF_PERICENTER":"74.6043","FILE":"3381954","RA_OF_ASC_NODE":"290.5211","ELEMENT_SET_NO":"999","OBJECT_ID":"2021-012AR"}];
